[{"OBJECT_NAME":"RROCI-2","OBJECT_ID":"2024-043J","EPOCH":"2026-03-09T21:40:56.693280","MEAN_MOTION":14.99383357,"ECCENTRICITY":0.00054118,"INCLINATION":97.8279,"RA_OF_ASC_NODE":200.9973,"ARG_OF_PERICENTER":337.3784,"MEAN_ANOMALY":22.7199,"EPHEMERIS_TYPE":0,"CLASSIFICATION_TYPE":"U","NORAD_CAT_ID":59106,"ELEMENT_SET_NO":999,"REV_AT_EPOCH":10988,"BSTAR":0.00035067832,"MEAN_MOTION_DOT":4.232e-5,"MEAN_MOTION_DDOT":0},{"OBJECT_NAME":"STARLINK-36193","OBJECT_ID":"2025-298AA","EPOCH":"2026-03-09T22:00:01.999584","MEAN_MOTION":14.99161072,"ECCENTRICITY":0.00026795,"INCLINATION":70.0009,"RA_OF_ASC_NODE":13.8189,"ARG_OF_PERICENTER":268.8131,"MEAN_ANOMALY":76.3461,"EPHEMERIS_TYPE":0,"CLASSIFICATION_TYPE":"U","NORAD_CAT_ID":67099,"ELEMENT_SET_NO":999,"REV_AT_EPOCH":590,"BSTAR":-0.001795619,"MEAN_MOTION_DOT":-0.00021917,"MEAN_MOTION_DDOT":0}]
